UNKNOWN                 
1 81605U          26015.67705732  .00000004  00000+0  43483-3 0  9999
2 81605  56.4331 117.4089 0174606 180.6090 179.4647 12.81554817190552
UNKNOWN                 
1 81614U          26013.46125897  .00005225  00000+0  33358-1 0  9990
2 81614 101.8150  13.3176 0340742  86.3314 277.6641 12.37487386541905
UNKNOWN                 
1 81615U          26016.29260109  .00000842  00000+0  32937-3 0  9995
2 81615  65.8290 341.6024 0769155 120.4580 247.4732 13.34187604587473
UNKNOWN                 
1 81617U          26013.76990003  .00000269  00000+0  18490-2 0  9999
2 81617 101.2601 191.8262 0037909 182.7970 177.2900 12.57560316557130
UNKNOWN                 
1 81624U          26015.15344357  .00002986  00000+0  47950-3 0  9999
2 81624  66.9763  74.5733 0068407 211.6333 148.0670 14.71574169644626
UNKNOWN                 
1 81640U          26014.55205274  .00000088  00000+0  13490-3 0  9997
2 81640  65.8263  64.8439 0976702  64.2732 305.5789 12.57237891514204
UNKNOWN                 
1 81652U          26015.18494715  .00000261  00000+0  37144-3 0  9995
2 81652 102.1456 275.6124 0366810 285.2409 235.7984 13.44435878583140
UNKNOWN                 
1 81667U          26015.85603774  .00001551  00000+0  42249-3 0  9997
2 81667  74.0451 332.7084 0017601 258.0495 101.8691 14.48188902461581
UNKNOWN                 
1 81674U          26013.04869363  .00000736  00000+0  46078-3 0  9990
2 81674  66.8233 285.4302 0029030 211.9398 162.1843 14.09999781618138
UNKNOWN                 
1 81683U          26015.66046244  .00000978  00000+0  21077-3 0  9995
2 81683  81.2144 259.5935 0022648 192.3267 167.7379 14.57613116640801
UNKNOWN                 
1 81693U          26013.44759138  .00000440  00000+0  34506-2 0  9997
2 81693 101.0946  76.3986 0364429  23.9754 337.7812 12.25930260971656
UNKNOWN                 
1 81745U          26013.17472355  .00001713  00000+0  55332-3 0  9993
2 81745  71.0016 318.7064 0005570 203.4650 156.6232 14.40531403634270
