CCSDS_OMM_VERS = 2.0
CREATION_DATE  = 
ORIGINATOR     = 

OBJECT_NAME    = UNKNOWN
OBJECT_ID      = 
CENTER_NAME    = EARTH
REF_FRAME      = TEME
TIME_SYSTEM    = UTC
MEAN_ELEMENT_THEORY = SGP/SGP4

EPOCH          = 2026-01-15T16:14:57.752448
MEAN_MOTION    = 12.81554817
ECCENTRICITY   = .0174606
INCLINATION    = 56.4331
RA_OF_ASC_NODE = 117.4089
ARG_OF_PERICENTER = 180.6090
MEAN_ANOMALY   = 179.4647

EPHEMERIS_TYPE = 0
CLASSIFICATION_TYPE = U
NORAD_CAT_ID   = 81605
ELEMENT_SET_NO = 999
REV_AT_EPOCH   = 19055
BSTAR          = .43483E-3
MEAN_MOTION_DOT = .4E-7
MEAN_MOTION_DDOT = 0

CCSDS_OMM_VERS = 2.0
CREATION_DATE  = 
ORIGINATOR     = 

OBJECT_NAME    = UNKNOWN
OBJECT_ID      = 
CENTER_NAME    = EARTH
REF_FRAME      = TEME
TIME_SYSTEM    = UTC
MEAN_ELEMENT_THEORY = SGP/SGP4

EPOCH          = 2026-01-13T11:04:12.775008
MEAN_MOTION    = 12.37487386
ECCENTRICITY   = .0340742
INCLINATION    = 101.8150
RA_OF_ASC_NODE = 13.3176
ARG_OF_PERICENTER = 86.3314
MEAN_ANOMALY   = 277.6641

EPHEMERIS_TYPE = 0
CLASSIFICATION_TYPE = U
NORAD_CAT_ID   = 81614
ELEMENT_SET_NO = 999
REV_AT_EPOCH   = 54190
BSTAR          = .33358E-1
MEAN_MOTION_DOT = .5225E-4
MEAN_MOTION_DDOT = 0

CCSDS_OMM_VERS = 2.0
CREATION_DATE  = 
ORIGINATOR     = 

OBJECT_NAME    = UNKNOWN
OBJECT_ID      = 
CENTER_NAME    = EARTH
REF_FRAME      = TEME
TIME_SYSTEM    = UTC
MEAN_ELEMENT_THEORY = SGP/SGP4

EPOCH          = 2026-01-16T07:01:20.734176
MEAN_MOTION    = 13.34187604
ECCENTRICITY   = .0769155
INCLINATION    = 65.8290
RA_OF_ASC_NODE = 341.6024
ARG_OF_PERICENTER = 120.4580
MEAN_ANOMALY   = 247.4732

EPHEMERIS_TYPE = 0
CLASSIFICATION_TYPE = U
NORAD_CAT_ID   = 81615
ELEMENT_SET_NO = 999
REV_AT_EPOCH   = 58747
BSTAR          = .32937E-3
MEAN_MOTION_DOT = .842E-5
MEAN_MOTION_DDOT = 0

CCSDS_OMM_VERS = 2.0
CREATION_DATE  = 
ORIGINATOR     = 

OBJECT_NAME    = UNKNOWN
OBJECT_ID      = 
CENTER_NAME    = EARTH
REF_FRAME      = TEME
TIME_SYSTEM    = UTC
MEAN_ELEMENT_THEORY = SGP/SGP4

EPOCH          = 2026-01-13T18:28:39.362592
MEAN_MOTION    = 12.57560316
ECCENTRICITY   = .0037909
INCLINATION    = 101.2601
RA_OF_ASC_NODE = 191.8262
ARG_OF_PERICENTER = 182.7970
MEAN_ANOMALY   = 177.2900

EPHEMERIS_TYPE = 0
CLASSIFICATION_TYPE = U
NORAD_CAT_ID   = 81617
ELEMENT_SET_NO = 999
REV_AT_EPOCH   = 55713
BSTAR          = .1849E-2
MEAN_MOTION_DOT = .269E-5
MEAN_MOTION_DDOT = 0

CCSDS_OMM_VERS = 2.0
CREATION_DATE  = 
ORIGINATOR     = 

OBJECT_NAME    = UNKNOWN
OBJECT_ID      = 
CENTER_NAME    = EARTH
REF_FRAME      = TEME
TIME_SYSTEM    = UTC
MEAN_ELEMENT_THEORY = SGP/SGP4

EPOCH          = 2026-01-15T03:40:57.524448
MEAN_MOTION    = 14.71574169
ECCENTRICITY   = .0068407
INCLINATION    = 66.9763
RA_OF_ASC_NODE = 74.5733
ARG_OF_PERICENTER = 211.6333
MEAN_ANOMALY   = 148.0670

EPHEMERIS_TYPE = 0
CLASSIFICATION_TYPE = U
NORAD_CAT_ID   = 81624
ELEMENT_SET_NO = 999
REV_AT_EPOCH   = 64462
BSTAR          = .4795E-3
MEAN_MOTION_DOT = .2986E-4
MEAN_MOTION_DDOT = 0

CCSDS_OMM_VERS = 2.0
CREATION_DATE  = 
ORIGINATOR     = 

OBJECT_NAME    = UNKNOWN
OBJECT_ID      = 
CENTER_NAME    = EARTH
REF_FRAME      = TEME
TIME_SYSTEM    = UTC
MEAN_ELEMENT_THEORY = SGP/SGP4

EPOCH          = 2026-01-14T13:14:57.356736
MEAN_MOTION    = 12.57237891
ECCENTRICITY   = .0976702
INCLINATION    = 65.8263
RA_OF_ASC_NODE = 64.8439
ARG_OF_PERICENTER = 64.2732
MEAN_ANOMALY   = 305.5789

EPHEMERIS_TYPE = 0
CLASSIFICATION_TYPE = U
NORAD_CAT_ID   = 81640
ELEMENT_SET_NO = 999
REV_AT_EPOCH   = 51420
BSTAR          = .1349E-3
MEAN_MOTION_DOT = .88E-6
MEAN_MOTION_DDOT = 0

CCSDS_OMM_VERS = 2.0
CREATION_DATE  = 
ORIGINATOR     = 

OBJECT_NAME    = UNKNOWN
OBJECT_ID      = 
CENTER_NAME    = EARTH
REF_FRAME      = TEME
TIME_SYSTEM    = UTC
MEAN_ELEMENT_THEORY = SGP/SGP4

EPOCH          = 2026-01-15T04:26:19.433760
MEAN_MOTION    = 13.44435878
ECCENTRICITY   = .036681
INCLINATION    = 102.1456
RA_OF_ASC_NODE = 275.6124
ARG_OF_PERICENTER = 285.2409
MEAN_ANOMALY   = 235.7984

EPHEMERIS_TYPE = 0
CLASSIFICATION_TYPE = U
NORAD_CAT_ID   = 81652
ELEMENT_SET_NO = 999
REV_AT_EPOCH   = 58314
BSTAR          = .37144E-3
MEAN_MOTION_DOT = .261E-5
MEAN_MOTION_DDOT = 0

CCSDS_OMM_VERS = 2.0
CREATION_DATE  = 
ORIGINATOR     = 

OBJECT_NAME    = UNKNOWN
OBJECT_ID      = 
CENTER_NAME    = EARTH
REF_FRAME      = TEME
TIME_SYSTEM    = UTC
MEAN_ELEMENT_THEORY = SGP/SGP4

EPOCH          = 2026-01-15T20:32:41.660736
MEAN_MOTION    = 14.48188902
ECCENTRICITY   = .0017601
INCLINATION    = 74.0451
RA_OF_ASC_NODE = 332.7084
ARG_OF_PERICENTER = 258.0495
MEAN_ANOMALY   = 101.8691

EPHEMERIS_TYPE = 0
CLASSIFICATION_TYPE = U
NORAD_CAT_ID   = 81667
ELEMENT_SET_NO = 999
REV_AT_EPOCH   = 46158
BSTAR          = .42249E-3
MEAN_MOTION_DOT = .1551E-4
MEAN_MOTION_DDOT = 0

CCSDS_OMM_VERS = 2.0
CREATION_DATE  = 
ORIGINATOR     = 

OBJECT_NAME    = UNKNOWN
OBJECT_ID      = 
CENTER_NAME    = EARTH
REF_FRAME      = TEME
TIME_SYSTEM    = UTC
MEAN_ELEMENT_THEORY = SGP/SGP4

EPOCH          = 2026-01-13T01:10:07.129632
MEAN_MOTION    = 14.09999781
ECCENTRICITY   = .002903
INCLINATION    = 66.8233
RA_OF_ASC_NODE = 285.4302
ARG_OF_PERICENTER = 211.9398
MEAN_ANOMALY   = 162.1843

EPHEMERIS_TYPE = 0
CLASSIFICATION_TYPE = U
NORAD_CAT_ID   = 81674
ELEMENT_SET_NO = 999
REV_AT_EPOCH   = 61813
BSTAR          = .46078E-3
MEAN_MOTION_DOT = .736E-5
MEAN_MOTION_DDOT = 0

CCSDS_OMM_VERS = 2.0
CREATION_DATE  = 
ORIGINATOR     = 

OBJECT_NAME    = UNKNOWN
OBJECT_ID      = 
CENTER_NAME    = EARTH
REF_FRAME      = TEME
TIME_SYSTEM    = UTC
MEAN_ELEMENT_THEORY = SGP/SGP4

EPOCH          = 2026-01-15T15:51:03.954816
MEAN_MOTION    = 14.57613116
ECCENTRICITY   = .0022648
INCLINATION    = 81.2144
RA_OF_ASC_NODE = 259.5935
ARG_OF_PERICENTER = 192.3267
MEAN_ANOMALY   = 167.7379

EPHEMERIS_TYPE = 0
CLASSIFICATION_TYPE = U
NORAD_CAT_ID   = 81683
ELEMENT_SET_NO = 999
REV_AT_EPOCH   = 64080
BSTAR          = .21077E-3
MEAN_MOTION_DOT = .978E-5
MEAN_MOTION_DDOT = 0

CCSDS_OMM_VERS = 2.0
CREATION_DATE  = 
ORIGINATOR     = 

OBJECT_NAME    = UNKNOWN
OBJECT_ID      = 
CENTER_NAME    = EARTH
REF_FRAME      = TEME
TIME_SYSTEM    = UTC
MEAN_ELEMENT_THEORY = SGP/SGP4

EPOCH          = 2026-01-13T10:44:31.895232
MEAN_MOTION    = 12.25930260
ECCENTRICITY   = .0364429
INCLINATION    = 101.0946
RA_OF_ASC_NODE = 76.3986
ARG_OF_PERICENTER = 23.9754
MEAN_ANOMALY   = 337.7812

EPHEMERIS_TYPE = 0
CLASSIFICATION_TYPE = U
NORAD_CAT_ID   = 81693
ELEMENT_SET_NO = 999
REV_AT_EPOCH   = 97165
BSTAR          = .34506E-2
MEAN_MOTION_DOT = .44E-5
MEAN_MOTION_DDOT = 0

CCSDS_OMM_VERS = 2.0
CREATION_DATE  = 
ORIGINATOR     = 

OBJECT_NAME    = UNKNOWN
OBJECT_ID      = 
CENTER_NAME    = EARTH
REF_FRAME      = TEME
TIME_SYSTEM    = UTC
MEAN_ELEMENT_THEORY = SGP/SGP4

EPOCH          = 2026-01-13T04:11:36.114720
MEAN_MOTION    = 14.40531403
ECCENTRICITY   = .000557
INCLINATION    = 71.0016
RA_OF_ASC_NODE = 318.7064
ARG_OF_PERICENTER = 203.4650
MEAN_ANOMALY   = 156.6232

EPHEMERIS_TYPE = 0
CLASSIFICATION_TYPE = U
NORAD_CAT_ID   = 81745
ELEMENT_SET_NO = 999
REV_AT_EPOCH   = 63427
BSTAR          = .55332E-3
MEAN_MOTION_DOT = .1713E-4
MEAN_MOTION_DDOT = 0

